start=new Date('2022-06-09T00:00:00.000Z').valueOf();
sats=[{"DECAY_DATE":null,"REF_FRAME":"TEME","REV_AT_EPOCH":"9777","OBJECT_ID":"2020-062T","PERIOD":"95.592","ARG_OF_PERICENTER":"57.1475","FILE":"3485745","COUNTRY_CODE":"US","CLASSIFICATION_TYPE":"U","TLE_LINE1":"1 46342U 20062T   22159.38420990  .00001173  00000-0  97656-4 0  9992","MEAN_MOTION_DDOT":"0.0000000000000","ELEMENT_SET_NO":"999","MEAN_MOTION_DOT":"0.00001173","RCS_SIZE":"LARGE","SEMIMAJOR_AXIS":"6925.341","RA_OF_ASC_NODE":"48.1457","EPOCH":"2022-06-08T09:13:15.735360","MEAN_ELEMENT_THEORY":"SGP4","APOAPSIS":"548.362","OBJECT_NAME":"STARLINK-1762","BSTAR":"0.00009765600000","PERIAPSIS":"546.051","MEAN_ANOMALY":"302.9674","MEAN_MOTION":"15.06402312","ECCENTRICITY":"0.00016690","TIME_SYSTEM":"UTC","NORAD_CAT_ID":"46342","CENTER_NAME":"EARTH","TLE_LINE2":"2 46342  53.0568  48.1457 0001669  57.1475 302.9674 15.06402312 97773","GP_ID":"205632599","SITE":"AFETR","EPHEMERIS_TYPE":"0","LAUNCH_DATE":"2020-09-03","INCLINATION":"53.0568","OBJECT_TYPE":"PAYLOAD"},{"CENTER_NAME":"EARTH","TLE_LINE2":"2 46343  53.0541  26.7098 0001826  58.7104 301.4064 15.06403345 98280","GP_ID":"205642441","SITE":"AFETR","LAUNCH_DATE":"2020-09-03","EPHEMERIS_TYPE":"0","INCLINATION":"53.0541","OBJECT_TYPE":"PAYLOAD","MEAN_ANOMALY":"301.4064","PERIAPSIS":"545.939","MEAN_MOTION":"15.06403345","ECCENTRICITY":"0.00018260","TIME_SYSTEM":"UTC","NORAD_CAT_ID":"46343","TLE_LINE1":"1 46343U 20062U   22159.71041623 -.00000761  00000-0 -32209-4 0  9999","MEAN_MOTION_DDOT":"0.0000000000000","RCS_SIZE":"LARGE","EPOCH":"2022-06-08T17:02:59.962272","SEMIMAJOR_AXIS":"6925.338","MEAN_MOTION_DOT":"-0.00000761","RA_OF_ASC_NODE":"26.7098","ELEMENT_SET_NO":"999","APOAPSIS":"548.468","MEAN_ELEMENT_THEORY":"SGP4","OBJECT_NAME":"STARLINK-1764","BSTAR":"-0.00003220900000","DECAY_DATE":null,"REF_FRAME":"TEME","REV_AT_EPOCH":"9828","OBJECT_ID":"2020-062U","FILE":"3486119","ARG_OF_PERICENTER":"58.7104","PERIOD":"95.592","COUNTRY_CODE":"US","CLASSIFICATION_TYPE":"U"},{"GP_ID":"205632098","SITE":"AFETR","CENTER_NAME":"EARTH","TLE_LINE2":"2 46344  53.0563  28.4091 0001993  53.0812 307.0359 15.06399011 98043","INCLINATION":"53.0563","OBJECT_TYPE":"PAYLOAD","EPHEMERIS_TYPE":"0","LAUNCH_DATE":"2020-09-03","MEAN_MOTION":"15.06399011","ECCENTRICITY":"0.00019930","MEAN_ANOMALY":"307.0359","PERIAPSIS":"545.836","NORAD_CAT_ID":"46344","TIME_SYSTEM":"UTC","MEAN_MOTION_DDOT":"0.0000000000000","RCS_SIZE":"LARGE","SEMIMAJOR_AXIS":"6925.352","MEAN_MOTION_DOT":"-0.00000656","EPOCH":"2022-06-08T07:56:18.317184","RA_OF_ASC_NODE":"28.4091","ELEMENT_SET_NO":"999","TLE_LINE1":"1 46344U 20062V   22159.33076756 -.00000656  00000-0 -25148-4 0  9990","OBJECT_NAME":"STARLINK-1765","BSTAR":"-0.00002514800000","APOAPSIS":"548.597","MEAN_ELEMENT_THEORY":"SGP4","OBJECT_ID":"2020-062V","REF_FRAME":"TEME","DECAY_DATE":null,"REV_AT_EPOCH":"9804","CLASSIFICATION_TYPE":"U","FILE":"3485745","ARG_OF_PERICENTER":"53.0812","PERIOD":"95.592","COUNTRY_CODE":"US"},{"OBJECT_TYPE":"PAYLOAD","INCLINATION":"53.0557","EPHEMERIS_TYPE":"0","LAUNCH_DATE":"2020-09-03","SITE":"AFETR","GP_ID":"205631848","TLE_LINE2":"2 46345  53.0557  48.0768 0001969  55.3248 304.7926 15.06398943 97773","CENTER_NAME":"EARTH","NORAD_CAT_ID":"46345","TIME_SYSTEM":"UTC","ECCENTRICITY":"0.00019690","MEAN_MOTION":"15.06398943","MEAN_ANOMALY":"304.7926","PERIAPSIS":"545.853","BSTAR":"0.00005143700000","OBJECT_NAME":"STARLINK-1767","MEAN_ELEMENT_THEORY":"SGP4","APOAPSIS":"548.580","ELEMENT_SET_NO":"999","EPOCH":"2022-06-08T09:33:08.318016","RCS_SIZE":"LARGE","SEMIMAJOR_AXIS":"6925.352","RA_OF_ASC_NODE":"48.0768","MEAN_MOTION_DOT":"0.00000485","MEAN_MOTION_DDOT":"0.0000000000000","TLE_LINE1":"1 46345U 20062W   22159.39801294  .00000485  00000-0  51437-4 0  9998","CLASSIFICATION_TYPE":"U","COUNTRY_CODE":"US","ARG_OF_PERICENTER":"55.3248","PERIOD":"95.592","FILE":"3485745","OBJECT_ID":"2020-062W","REV_AT_EPOCH":"9777","DECAY_DATE":null,"REF_FRAME":"TEME"},{"FILE":"3485426","PERIOD":"93.855","ARG_OF_PERICENTER":"25.4543","COUNTRY_CODE":"US","CLASSIFICATION_TYPE":"U","REF_FRAME":"TEME","DECAY_DATE":null,"REV_AT_EPOCH":"10016","OBJECT_ID":"2020-062X","APOAPSIS":"465.950","MEAN_ELEMENT_THEORY":"SGP4","OBJECT_NAME":"STARLINK-1546","BSTAR":"0.00030873000000","TLE_LINE1":"1 46346U 20062X   22159.55102697  .00010030  00000-0  30873-3 0  9995","MEAN_MOTION_DDOT":"0.0000000000000","RCS_SIZE":"LARGE","SEMIMAJOR_AXIS":"6841.203","RA_OF_ASC_NODE":"252.6581","EPOCH":"2022-06-08T13:13:28.730208","MEAN_MOTION_DOT":"0.00010030","ELEMENT_SET_NO":"999","TIME_SYSTEM":"UTC","NORAD_CAT_ID":"46346","MEAN_ANOMALY":"334.6664","PERIAPSIS":"460.187","MEAN_MOTION":"15.34277816","ECCENTRICITY":"0.00042120","LAUNCH_DATE":"2020-09-03","EPHEMERIS_TYPE":"0","INCLINATION":"53.0530","OBJECT_TYPE":"PAYLOAD","CENTER_NAME":"EARTH","TLE_LINE2":"2 46346  53.0530 252.6581 0004212  25.4543 334.6664 15.34277816100166","GP_ID":"205604757","SITE":"AFETR"},{"CLASSIFICATION_TYPE":"U","ARG_OF_PERICENTER":"67.7636","PERIOD":"95.592","FILE":"3485745","COUNTRY_CODE":"US","OBJECT_ID":"2020-062Y","DECAY_DATE":null,"REF_FRAME":"TEME","REV_AT_EPOCH":"9837","OBJECT_NAME":"STARLINK-1547","BSTAR":"0.00011604000000","MEAN_ELEMENT_THEORY":"SGP4","APOAPSIS":"548.355","MEAN_MOTION_DDOT":"0.0000000000000","ELEMENT_SET_NO":"999","RCS_SIZE":"LARGE","EPOCH":"2022-06-08T06:58:34.936896","SEMIMAJOR_AXIS":"6925.354","RA_OF_ASC_NODE":"3.5721","MEAN_MOTION_DOT":"0.00001447","TLE_LINE1":"1 46347U 20062Y   22159.29068214  .00001447  00000-0  11604-3 0  9996","NORAD_CAT_ID":"46347","TIME_SYSTEM":"UTC","MEAN_MOTION":"15.06398244","ECCENTRICITY":"0.00016410","PERIAPSIS":"546.082","MEAN_ANOMALY":"292.3527","INCLINATION":"53.0566","OBJECT_TYPE":"PAYLOAD","EPHEMERIS_TYPE":"0","LAUNCH_DATE":"2020-09-03","GP_ID":"205632848","SITE":"AFETR","CENTER_NAME":"EARTH","TLE_LINE2":"2 46347  53.0566   3.5721 0001641  67.7636 292.3527 15.06398244 98375"},{"CLASSIFICATION_TYPE":"U","COUNTRY_CODE":"US","ARG_OF_PERICENTER":"54.0441","PERIOD":"95.593","FILE":"3485745","OBJECT_ID":"2020-062Z","REV_AT_EPOCH":"9804","DECAY_DATE":null,"REF_FRAME":"TEME","BSTAR":"0.00008372200000","OBJECT_NAME":"STARLINK-1553","MEAN_ELEMENT_THEORY":"SGP4","APOAPSIS":"548.567","ELEMENT_SET_NO":"999","SEMIMAJOR_AXIS":"6925.368","RCS_SIZE":"LARGE","RA_OF_ASC_NODE":"28.3699","MEAN_MOTION_DOT":"0.00000965","EPOCH":"2022-06-08T08:01:37.037280","MEAN_MOTION_DDOT":"0.0000000000000","TLE_LINE1":"1 46348U 20062Z   22159.33445645  .00000965  00000-0  83722-4 0  9994","NORAD_CAT_ID":"46348","TIME_SYSTEM":"UTC","ECCENTRICITY":"0.00019250","MEAN_MOTION":"15.06393518","PERIAPSIS":"545.900","MEAN_ANOMALY":"306.0726","OBJECT_TYPE":"PAYLOAD","INCLINATION":"53.0560","LAUNCH_DATE":"2020-09-03","EPHEMERIS_TYPE":"0","SITE":"AFETR","GP_ID":"205631598","TLE_LINE2":"2 46348  53.0560  28.3699 0001925  54.0441 306.0726 15.06393518 98044","CENTER_NAME":"EARTH"},{"OBJECT_TYPE":"PAYLOAD","INCLINATION":"53.0560","LAUNCH_DATE":"2020-09-03","EPHEMERIS_TYPE":"0","SITE":"AFETR","GP_ID":"205632349","TLE_LINE2":"2 46349  53.0560   2.2083 0001597  59.4073 300.7074 15.06398028 98439","CENTER_NAME":"EARTH","NORAD_CAT_ID":"46349","TIME_SYSTEM":"UTC","ECCENTRICITY":"0.00015970","MEAN_MOTION":"15.06398028","MEAN_ANOMALY":"300.7074","PERIAPSIS":"546.114","BSTAR":"0.00005647500000","OBJECT_NAME":"STARLINK-1575","MEAN_ELEMENT_THEORY":"SGP4","APOAPSIS":"548.326","ELEMENT_SET_NO":"999","MEAN_MOTION_DOT":"0.00000560","RCS_SIZE":"LARGE","SEMIMAJOR_AXIS":"6925.355","RA_OF_ASC_NODE":"2.2083","EPOCH":"2022-06-08T14:19:07.382208","MEAN_MOTION_DDOT":"0.0000000000000","TLE_LINE1":"1 46349U 20062AA  22159.59661322  .00000560  00000-0  56475-4 0  9991","CLASSIFICATION_TYPE":"U","COUNTRY_CODE":"US","ARG_OF_PERICENTER":"59.4073","PERIOD":"95.592","FILE":"3485745","OBJECT_ID":"2020-062AA","REV_AT_EPOCH":"9843","DECAY_DATE":null,"REF_FRAME":"TEME"},{"OBJECT_TYPE":"PAYLOAD","INCLINATION":"53.0570","EPHEMERIS_TYPE":"0","LAUNCH_DATE":"2020-09-03","SITE":"AFETR","GP_ID":"205632600","TLE_LINE2":"2 46350  53.0570  47.9701 0001678  49.9012 310.2124 15.06401192 97788","CENTER_NAME":"EARTH","NORAD_CAT_ID":"46350","TIME_SYSTEM":"UTC","ECCENTRICITY":"0.00016780","MEAN_MOTION":"15.06401192","PERIAPSIS":"546.048","MEAN_ANOMALY":"310.2124","BSTAR":"0.00002931400000","OBJECT_NAME":"STARLINK-1617","APOAPSIS":"548.372","MEAN_ELEMENT_THEORY":"SGP4","RA_OF_ASC_NODE":"47.9701","RCS_SIZE":"LARGE","SEMIMAJOR_AXIS":"6925.345","MEAN_MOTION_DOT":"0.00000155","EPOCH":"2022-06-08T10:16:57.312768","ELEMENT_SET_NO":"999","MEAN_MOTION_DDOT":"0.0000000000000","TLE_LINE1":"1 46350U 20062AB  22159.42844112  .00000155  00000-0  29314-4 0  9997","CLASSIFICATION_TYPE":"U","COUNTRY_CODE":"US","FILE":"3485745","PERIOD":"95.592","ARG_OF_PERICENTER":"49.9012","OBJECT_ID":"2020-062AB","REV_AT_EPOCH":"9778","DECAY_DATE":null,"REF_FRAME":"TEME"},{"TLE_LINE2":"2 46351  53.0559  28.2153 0001524  55.7574 304.3559 15.06628738 98062","CENTER_NAME":"EARTH","SITE":"AFETR","GP_ID":"205633349","EPHEMERIS_TYPE":"0","LAUNCH_DATE":"2020-09-03","OBJECT_TYPE":"PAYLOAD","INCLINATION":"53.0559","MEAN_ANOMALY":"304.3559","PERIAPSIS":"545.457","ECCENTRICITY":"0.00015240","MEAN_MOTION":"15.06628738","TIME_SYSTEM":"UTC","NORAD_CAT_ID":"46351","TLE_LINE1":"1 46351U 20062AC  22159.36666156 -.00047357  00000-0 -31619-2 0  9997","SEMIMAJOR_AXIS":"6924.648","RCS_SIZE":"LARGE","RA_OF_ASC_NODE":"28.2153","EPOCH":"2022-06-08T08:47:59.558784","MEAN_MOTION_DOT":"-0.00047357","ELEMENT_SET_NO":"999","MEAN_MOTION_DDOT":"0.0000000000000","APOAPSIS":"547.568","MEAN_ELEMENT_THEORY":"SGP4","BSTAR":"-0.00316190000000","OBJECT_NAME":"STARLINK-1646","REV_AT_EPOCH":"9806","DECAY_DATE":null,"REF_FRAME":"TEME","OBJECT_ID":"2020-062AC","COUNTRY_CODE":"US","FILE":"3485745","ARG_OF_PERICENTER":"55.7574","PERIOD":"95.578","CLASSIFICATION_TYPE":"U"}];
